ONEWEB-0349             
1 49281U 21090C   25358.91138799 -.00000016  00000+0 -71298-4 0  9995
2 49281  87.9210 309.1986 0001767  78.5265 281.6066 13.20770922206823
ONEWEB-0353             
1 49282U 21090D   25358.67262237  .00000234  00000+0  59608-3 0  9994
2 49282  87.9006 324.4724 0001964  76.2094 283.9255 13.14500842204650
ONEWEB-0356             
1 49283U 21090E   25358.90981026  .00000017  00000+0  10393-4 0  9993
2 49283  87.9212 309.1924 0002600  92.8388 267.3043 13.20771705206827
ONEWEB-0358             
1 49284U 21090F   25358.86404408 -.00000024  00000+0 -89997-4 0  9999
2 49284  87.9220 309.2028 0001814  84.2224 275.9117 13.20771307207548
ONEWEB-0359             
1 49285U 21090G   25358.86088002 -.00000086  00000+0 -24273-3 0  9991
2 49285  87.9216 309.2020 0001542  90.8244 269.3066 13.20770600207522
ONEWEB-0360             
1 49286U 21090H   25358.85142512  .00000038  00000+0  61732-4 0  9995
2 49286  87.9203 309.2120 0001690  79.9799 280.1525 13.20771345206838
ONEWEB-0361             
1 49287U 21090J   25358.90824445 -.00000028  00000+0 -99841-4 0  9997
2 49287  87.9216 309.1969 0001948  83.7316 276.4039 13.20770355207296
ONEWEB-0362             
1 49288U 21090K   25358.87443028  .00000005  00000+0 -20988-4 0  9998
2 49288  87.9200 339.6680 0001587  79.0684 281.0627 13.19725514203929
